{
  "links" : {
    "next" : "https://api.nasa.gov/neo/rest/v1/neo/browse?page=13&size=20&api_key=jqAGvNAwUIBu4fl9FSOjdm3V4F7hIglRzI6pdX9d",
    "prev" : "https://api.nasa.gov/neo/rest/v1/neo/browse?page=11&size=20&api_key=jqAGvNAwUIBu4fl9FSOjdm3V4F7hIglRzI6pdX9d",
    "self" : "https://api.nasa.gov/neo/rest/v1/neo/browse?page=12&size=20&api_key=jqAGvNAwUIBu4fl9FSOjdm3V4F7hIglRzI6pdX9d"
  },
  "page" : {
    "size" : 20,
    "total_elements" : 20750,
    "total_pages" : 1038,
    "number" : 12
  },
  "near_earth_objects" : [ {
    "links" : {
      "self" : "https://api.nasa.gov/neo/rest/v1/neo/3150778?api_key=jqAGvNAwUIBu4fl9FSOjdm3V4F7hIglRzI6pdX9d"
    },
    "neo_reference_id" : "3150778",
    "name" : "(2003 EC50)",
    "designation" : "2003 EC50",
    "nasa_jpl_url" : "http://ssd.jpl.nasa.gov/sbdb.cgi?sstr=3150778",
    "absolute_magnitude_h" : 22.9,
    "estimated_diameter" : {
      "kilometers" : {
        "estimated_diameter_min" : 0.0699125232,
        "estimated_diameter_max" : 0.1563291544
      },
      "meters" : {
        "estimated_diameter_min" : 69.9125232246,
        "estimated_diameter_max" : 156.3291544087
      },
      "miles" : {
        "estimated_diameter_min" : 0.0434416145,
        "estimated_diameter_max" : 0.097138403
      },
      "feet" : {
        "estimated_diameter_min" : 229.3718026961,
        "estimated_diameter_max" : 512.8909429502
      }
    },
    "is_potentially_hazardous_asteroid" : false,
    "close_approach_data" : [ {
      "close_approach_date" : "2003-03-25",
      "epoch_date_close_approach" : 1048579200000,
      "relative_velocity" : {
        "kilometers_per_second" : "11.9286208731",
        "kilometers_per_hour" : "42943.0351430419",
        "miles_per_hour" : "26683.132030964"
      },
      "miss_distance" : {
        "astronomical" : "0.0312776618",
        "lunar" : "12.1670103073",
        "kilometers" : "4679071.5",
        "miles" : "2907440.25"
      },
      "orbiting_body" : "Earth"
    } ],
    "orbital_data" : {
      "orbit_id" : "13",
      "orbit_determination_date" : "2017-04-06 09:14:16",
      "first_observation_date" : "2003-03-10",
      "last_observation_date" : "2003-03-23",
      "data_arc_in_days" : 13,
      "observations_used" : 35,
      "orbit_uncertainty" : "8",
      "minimum_orbit_intersection" : ".0308984",
      "jupiter_tisserand_invariant" : "3.433",
      "epoch_osculation" : "2452711.5",
      "eccentricity" : ".582625408254968",
      "semi_major_axis" : "2.180197227676293",
      "inclination" : "5.904895976337507",
      "ascending_node_longitude" : "21.29651232664428",
      "orbital_period" : "1175.823407180178",
      "perihelion_distance" : ".9099589278250433",
      "perihelion_argument" : "201.4031825078856",
      "aphelion_distance" : "3.450435527527542",
      "perihelion_time" : "2452752.211940103637",
      "mean_anomaly" : "347.5352894424362",
      "mean_motion" : ".3061684244433784",
      "equinox" : "J2000",
      "orbit_class" : {
        "orbit_class_type" : "APO",
        "orbit_class_range" : "a (semi-major axis) > 1.0 AU; q (perihelion) < 1.017 AU",
        "orbit_class_description" : "Near-Earth asteroid orbits which cross the Earth’s orbit similar to that of 1862 Apollo"
      }
    },
    "is_sentry_object" : false
  }, {
    "links" : {
      "self" : "https://api.nasa.gov/neo/rest/v1/neo/3151645?api_key=jqAGvNAwUIBu4fl9FSOjdm3V4F7hIglRzI6pdX9d"
    },
    "neo_reference_id" : "3151645",
    "name" : "(2003 FV3)",
    "designation" : "2003 FV3",
    "nasa_jpl_url" : "http://ssd.jpl.nasa.gov/sbdb.cgi?sstr=3151645",
    "absolute_magnitude_h" : 20.8,
    "estimated_diameter" : {
      "kilometers" : {
        "estimated_diameter_min" : 0.1838886721,
        "estimated_diameter_max" : 0.411187571
      },
      "meters" : {
        "estimated_diameter_min" : 183.8886720703,
        "estimated_diameter_max" : 411.1875710413
      },
      "miles" : {
        "estimated_diameter_min" : 0.1142630881,
        "estimated_diameter_max" : 0.2555000322
      },
      "feet" : {
        "estimated_diameter_min" : 603.309310875,
        "estimated_diameter_max" : 1349.040630575
      }
    },
    "is_potentially_hazardous_asteroid" : false,
    "close_approach_data" : [ {
      "close_approach_date" : "2003-03-17",
      "epoch_date_close_approach" : 1047888000000,
      "relative_velocity" : {
        "kilometers_per_second" : "11.7558668293",
        "kilometers_per_hour" : "42321.1205854613",
        "miles_per_hour" : "26296.6985104495"
      },
      "miss_distance" : {
        "astronomical" : "0.3051090259",
        "lunar" : "118.6874084473",
        "kilometers" : "45643660",
        "miles" : "28361656"
      },
      "orbiting_body" : "Earth"
    } ],
    "orbital_data" : {
      "orbit_id" : "15",
      "orbit_determination_date" : "2017-04-06 09:14:14",
      "first_observation_date" : "2003-03-26",
      "last_observation_date" : "2003-04-21",
      "data_arc_in_days" : 26,
      "observations_used" : 62,
      "orbit_uncertainty" : "7",
      "minimum_orbit_intersection" : ".270909",
      "jupiter_tisserand_invariant" : "3.434",
      "epoch_osculation" : "2458600.5",
      "eccentricity" : ".4827538762713378",
      "semi_major_axis" : "2.183560236489329",
      "inclination" : "22.1430024270538",
      "ascending_node_longitude" : "16.650778606",
      "orbital_period" : "1178.545061631194",
      "perihelion_distance" : "1.129438068252147",
      "perihelion_argument" : "119.3007102517547",
      "aphelion_distance" : "3.237682404726513",
      "perihelion_time" : "2458557.440101699023",
      "mean_anomaly" : "13.15313592413378",
      "mean_motion" : ".3054613792210313",
      "equinox" : "J2000",
      "orbit_class" : {
        "orbit_class_type" : "AMO",
        "orbit_class_range" : "1.017 AU < q (perihelion) < 1.3 AU",
        "orbit_class_description" : "Near-Earth asteroid orbits similar to that of 1221 Amor"
      }
    },
    "is_sentry_object" : false
  }, {
    "links" : {
      "self" : "https://api.nasa.gov/neo/rest/v1/neo/3152313?api_key=jqAGvNAwUIBu4fl9FSOjdm3V4F7hIglRzI6pdX9d"
    },
    "neo_reference_id" : "3152313",
    "name" : "(2003 GF21)",
    "designation" : "2003 GF21",
    "nasa_jpl_url" : "http://ssd.jpl.nasa.gov/sbdb.cgi?sstr=3152313",
    "absolute_magnitude_h" : 22.2,
    "estimated_diameter" : {
      "kilometers" : {
        "estimated_diameter_min" : 0.096506147,
        "estimated_diameter_max" : 0.2157943048
      },
      "meters" : {
        "estimated_diameter_min" : 96.5061469579,
        "estimated_diameter_max" : 215.7943048444
      },
      "miles" : {
        "estimated_diameter_min" : 0.059966121,
        "estimated_diameter_max" : 0.134088323
      },
      "feet" : {
        "estimated_diameter_min" : 316.6212271853,
        "estimated_diameter_max" : 707.9865871058
      }
    },
    "is_potentially_hazardous_asteroid" : false,
    "close_approach_data" : [ {
      "close_approach_date" : "2003-04-11",
      "epoch_date_close_approach" : 1050044400000,
      "relative_velocity" : {
        "kilometers_per_second" : "15.4962242568",
        "kilometers_per_hour" : "55786.4073245423",
        "miles_per_hour" : "34663.5040400746"
      },
      "miss_distance" : {
        "astronomical" : "0.0356407609",
        "lunar" : "13.8642559052",
        "kilometers" : "5331782",
        "miles" : "3313015.75"
      },
      "orbiting_body" : "Earth"
    } ],
    "orbital_data" : {
      "orbit_id" : "8",
      "orbit_determination_date" : "2017-04-06 09:14:12",
      "first_observation_date" : "2003-04-07",
      "last_observation_date" : "2003-04-10",
      "data_arc_in_days" : 3,
      "observations_used" : 37,
      "orbit_uncertainty" : "8",
      "minimum_orbit_intersection" : ".0142764",
      "jupiter_tisserand_invariant" : "3.892",
      "epoch_osculation" : "2452737.5",
      "eccentricity" : ".4882822107080542",
      "semi_major_axis" : "1.765141358908906",
      "inclination" : "21.82681770307006",
      "ascending_node_longitude" : "20.11283605341509",
      "orbital_period" : "856.5794741198331",
      "perihelion_distance" : ".9032542339686463",
      "perihelion_argument" : "221.5460576321896",
      "aphelion_distance" : "2.627028483849166",
      "perihelion_time" : "2452773.220626281019",
      "mean_anomaly" : "344.9874695230347",
      "mean_motion" : ".4202762392478681",
      "equinox" : "J2000",
      "orbit_class" : {
        "orbit_class_type" : "APO",
        "orbit_class_range" : "a (semi-major axis) > 1.0 AU; q (perihelion) < 1.017 AU",
        "orbit_class_description" : "Near-Earth asteroid orbits which cross the Earth’s orbit similar to that of 1862 Apollo"
      }
    },
    "is_sentry_object" : false
  } ]
}